RESURS-DK 1
1 29228U 06021A   26109.33057702  .00001464  00000+0  88947-4 0  9991
2 29228  69.9296 131.8796 0002706 354.2764   5.8371 15.12960160 93677
COSMO-SKYMED 1
1 31598U 07023A   26109.58003547  .00001490  00000+0  13535-3 0  9991
2 31598  97.8872 300.9491 0001167  90.2286 269.9069 14.96811490 21026
COSMOS 2428
1 31792U 07029A   26109.31261675 -.00000169  00000+0 -65133-4 0  9998
2 31792  70.9395 118.0791 0009367 233.1985 126.8277 14.12947235969836
SHIJIAN-16 (SJ-16)
1 39358U 13057A   26109.85591756  .00000469  00000+0  48481-4 0  9995
2 39358  74.9697 107.1474 0015936   6.7957 353.3444 14.92463022677643
ALOS-2
1 39766U 14029A   26108.55461549  .00000069  00000+0  16160-4 0  9995
2 39766  97.9203 206.5725 0001772  90.6594 269.4820 14.79454374642764
YAOGAN-29
1 41038U 15069A   26109.61451689 -.00000141  00000+0 -10677-4 0  9997
2 41038  98.0077 138.1426 0001271 151.6577 208.4706 14.83034562561945
HXMT (HUIYAN)
1 42758U 17034A   26109.58069569  .00003272  00000+0  16807-3 0  9995
2 42758  43.0130 149.2415 0030673 135.1899 225.1433 15.17952940488755
ALOS (DAICHI)
1 28931U 06002A   26109.61957250  .00000770  00000+0  13698-3 0  9997
2 28931  98.1281  65.3913 0001755 109.8389 250.3006 14.69925926 79495
H-2A R/B
1 28932U 06002B   26108.84866217  .00007408  00000+0  36277-3 0  9997
2 28932  98.2488 259.3725 0052606 104.9925 255.7138 15.17278887100520
CZ-4B R/B
1 29507U 06046C   26109.56830273  .00003700  00000+0  18636-3 0  9997
2 29507  97.5512 154.3603 0034434 124.5349 235.9143 15.17300856 66243
CZ-2C R/B
1 31114U 07010B   26109.58702933  .00000070  00000+0  50838-4 0  9997
2 31114  98.4027 220.8250 0059206 174.1914 185.9963 14.20260628985521
SL-16 R/B
1 31793U 07029B   26109.37567602  .00000072  00000+0  62036-4 0  9994
2 31793  70.9732  86.8573 0002630 269.9863 242.2198 14.14841840971127
KORONAS-FOTON
1 33504U 09003A   26109.72644639  .00012174  00000+0  26197-3 0  9998
2 33504  82.4310 233.1751 0010330  13.6618 346.4907 15.44429272952075
CZ-2C R/B
1 37731U 11030B   26109.75054046  .00000634  00000+0  86325-4 0  9995
2 37731  97.8609  66.2152 0051486 215.4208 209.8490 14.81344773796174
H-2A R/B
1 38341U 12025E   26109.88230655  .00001485  00000+0  13806-3 0  9992
2 38341  98.4795  80.2539 0044188 175.9851 184.1731 14.95419530754373
SL-4 R/B
1 39679U 14021B   26109.77277667  .00010585  00000+0  22920-3 0  9995
2 39679  51.6048 136.6360 0092970 253.2316 105.8452 15.40544717662607
ASTRO-H (HITOMI)
1 41337U 16012A   26109.28374068  .00002067  00000+0  11754-3 0  9999
2 41337  30.9985  94.5281 0009486  19.4284 340.6715 15.10242407558378
