[{"OBJECT_NAME":"ALOS (DAICHI)","OBJECT_ID":"2006-002A","EPOCH":"2026-04-19T14:52:11.064000","MEAN_MOTION":14.69925926,"ECCENTRICITY":0.00017556,"INCLINATION":98.1281,"RA_OF_ASC_NODE":65.3913,"ARG_OF_PERICENTER":109.8389,"MEAN_ANOMALY":250.3006,"EPHEMERIS_TYPE":0,"CLASSIFICATION_TYPE":"U","NORAD_CAT_ID":28931,"ELEMENT_SET_NO":999,"REV_AT_EPOCH":7949,"BSTAR":0.00013698138,"MEAN_MOTION_DOT":7.7e-6,"MEAN_MOTION_DDOT":0},{"OBJECT_NAME":"H-2A R/B","OBJECT_ID":"2006-002B","EPOCH":"2026-04-18T20:22:04.411488","MEAN_MOTION":15.17278887,"ECCENTRICITY":0.00526064,"INCLINATION":98.2488,"RA_OF_ASC_NODE":259.3725,"ARG_OF_PERICENTER":104.9925,"MEAN_ANOMALY":255.7138,"EPHEMERIS_TYPE":0,"CLASSIFICATION_TYPE":"U","NORAD_CAT_ID":28932,"ELEMENT_SET_NO":999,"REV_AT_EPOCH":10052,"BSTAR":0.00036276628,"MEAN_MOTION_DOT":7.408e-5,"MEAN_MOTION_DDOT":0},{"OBJECT_NAME":"RESURS-DK 1","OBJECT_ID":"2006-021A","EPOCH":"2026-04-19T07:56:01.854528","MEAN_MOTION":15.1296016,"ECCENTRICITY":0.00027064,"INCLINATION":69.9296,"RA_OF_ASC_NODE":131.8796,"ARG_OF_PERICENTER":354.2764,"MEAN_ANOMALY":5.8371,"EPHEMERIS_TYPE":0,"CLASSIFICATION_TYPE":"U","NORAD_CAT_ID":29228,"ELEMENT_SET_NO":999,"REV_AT_EPOCH":9367,"BSTAR":8.894743e-5,"MEAN_MOTION_DOT":1.464e-5,"MEAN_MOTION_DDOT":0},{"OBJECT_NAME":"CZ-4B R/B","OBJECT_ID":"2006-046C","EPOCH":"2026-04-19T13:38:21.355872","MEAN_MOTION":15.17300856,"ECCENTRICITY":0.00344341,"INCLINATION":97.5512,"RA_OF_ASC_NODE":154.3603,"ARG_OF_PERICENTER":124.5349,"MEAN_ANOMALY":235.9143,"EPHEMERIS_TYPE":0,"CLASSIFICATION_TYPE":"U","NORAD_CAT_ID":29507,"ELEMENT_SET_NO":999,"REV_AT_EPOCH":6624,"BSTAR":0.0001863569,"MEAN_MOTION_DOT":3.7e-5,"MEAN_MOTION_DDOT":0},{"OBJECT_NAME":"CZ-2C R/B","OBJECT_ID":"2007-010B","EPOCH":"2026-04-19T14:05:19.334112","MEAN_MOTION":14.20260628,"ECCENTRICITY":0.00592063,"INCLINATION":98.4027,"RA_OF_ASC_NODE":220.825,"ARG_OF_PERICENTER":174.1914,"MEAN_ANOMALY":185.9963,"EPHEMERIS_TYPE":0,"CLASSIFICATION_TYPE":"U","NORAD_CAT_ID":31114,"ELEMENT_SET_NO":999,"REV_AT_EPOCH":98552,"BSTAR":5.0838046e-5,"MEAN_MOTION_DOT":7.0e-7,"MEAN_MOTION_DDOT":0},{"OBJECT_NAME":"COSMO-SKYMED 1","OBJECT_ID":"2007-023A","EPOCH":"2026-04-19T13:55:15.064608","MEAN_MOTION":14.9681149,"ECCENTRICITY":0.00011675,"INCLINATION":97.8872,"RA_OF_ASC_NODE":300.9491,"ARG_OF_PERICENTER":90.2286,"MEAN_ANOMALY":269.9069,"EPHEMERIS_TYPE":0,"CLASSIFICATION_TYPE":"U","NORAD_CAT_ID":31598,"ELEMENT_SET_NO":999,"REV_AT_EPOCH":2102,"BSTAR":0.00013534578,"MEAN_MOTION_DOT":1.49e-5,"MEAN_MOTION_DDOT":0},{"OBJECT_NAME":"COSMOS 2428","OBJECT_ID":"2007-029A","EPOCH":"2026-04-19T07:30:10.087200","MEAN_MOTION":14.12947235,"ECCENTRICITY":0.0009367,"INCLINATION":70.9395,"RA_OF_ASC_NODE":118.0791,"ARG_OF_PERICENTER":233.1985,"MEAN_ANOMALY":126.8277,"EPHEMERIS_TYPE":0,"CLASSIFICATION_TYPE":"U","NORAD_CAT_ID":31792,"ELEMENT_SET_NO":999,"REV_AT_EPOCH":96983,"BSTAR":-6.5133e-5,"MEAN_MOTION_DOT":-1.69e-6,"MEAN_MOTION_DDOT":0},{"OBJECT_NAME":"SL-16 R/B","OBJECT_ID":"2007-029B","EPOCH":"2026-04-19T09:00:58.408128","MEAN_MOTION":14.1484184,"ECCENTRICITY":0.00026308,"INCLINATION":70.9732,"RA_OF_ASC_NODE":86.8573,"ARG_OF_PERICENTER":269.9863,"MEAN_ANOMALY":242.2198,"EPHEMERIS_TYPE":0,"CLASSIFICATION_TYPE":"U","NORAD_CAT_ID":31793,"ELEMENT_SET_NO":999,"REV_AT_EPOCH":97112,"BSTAR":6.2035551e-5,"MEAN_MOTION_DOT":7.2e-7,"MEAN_MOTION_DDOT":0},{"OBJECT_NAME":"KORONAS-FOTON","OBJECT_ID":"2009-003A","EPOCH":"2026-04-19T17:26:04.968096","MEAN_MOTION":15.44429272,"ECCENTRICITY":0.001033,"INCLINATION":82.431,"RA_OF_ASC_NODE":233.1751,"ARG_OF_PERICENTER":13.6618,"MEAN_ANOMALY":346.4907,"EPHEMERIS_TYPE":0,"CLASSIFICATION_TYPE":"U","NORAD_CAT_ID":33504,"ELEMENT_SET_NO":999,"REV_AT_EPOCH":95207,"BSTAR":0.00026197,"MEAN_MOTION_DOT":0.00012174,"MEAN_MOTION_DDOT":0},{"OBJECT_NAME":"CZ-2C R/B","OBJECT_ID":"2011-030B","EPOCH":"2026-04-19T18:00:46.695744","MEAN_MOTION":14.81344773,"ECCENTRICITY":0.0051486,"INCLINATION":97.8609,"RA_OF_ASC_NODE":66.2152,"ARG_OF_PERICENTER":215.4208,"MEAN_ANOMALY":209.849,"EPHEMERIS_TYPE":0,"CLASSIFICATION_TYPE":"U","NORAD_CAT_ID":37731,"ELEMENT_SET_NO":999,"REV_AT_EPOCH":79617,"BSTAR":8.6325e-5,"MEAN_MOTION_DOT":6.34e-6,"MEAN_MOTION_DDOT":0},{"OBJECT_NAME":"H-2A R/B","OBJECT_ID":"2012-025E","EPOCH":"2026-04-19T21:10:31.285920","MEAN_MOTION":14.9541953,"ECCENTRICITY":0.0044188,"INCLINATION":98.4795,"RA_OF_ASC_NODE":80.2539,"ARG_OF_PERICENTER":175.9851,"MEAN_ANOMALY":184.1731,"EPHEMERIS_TYPE":0,"CLASSIFICATION_TYPE":"U","NORAD_CAT_ID":38341,"ELEMENT_SET_NO":999,"REV_AT_EPOCH":75437,"BSTAR":0.00013806,"MEAN_MOTION_DOT":1.485e-5,"MEAN_MOTION_DDOT":0},{"OBJECT_NAME":"SHIJIAN-16 (SJ-16)","OBJECT_ID":"2013-057A","EPOCH":"2026-04-19T20:32:31.277184","MEAN_MOTION":14.92463022,"ECCENTRICITY":0.0015936,"INCLINATION":74.9697,"RA_OF_ASC_NODE":107.1474,"ARG_OF_PERICENTER":6.7957,"MEAN_ANOMALY":353.3444,"EPHEMERIS_TYPE":0,"CLASSIFICATION_TYPE":"U","NORAD_CAT_ID":39358,"ELEMENT_SET_NO":999,"REV_AT_EPOCH":67764,"BSTAR":4.8481e-5,"MEAN_MOTION_DOT":4.69e-6,"MEAN_MOTION_DDOT":0},{"OBJECT_NAME":"SL-4 R/B","OBJECT_ID":"2014-021B","EPOCH":"2026-04-19T18:32:47.904288","MEAN_MOTION":15.40544717,"ECCENTRICITY":0.009297,"INCLINATION":51.6048,"RA_OF_ASC_NODE":136.636,"ARG_OF_PERICENTER":253.2316,"MEAN_ANOMALY":105.8452,"EPHEMERIS_TYPE":0,"CLASSIFICATION_TYPE":"U","NORAD_CAT_ID":39679,"ELEMENT_SET_NO":999,"REV_AT_EPOCH":66260,"BSTAR":0.0002292,"MEAN_MOTION_DOT":0.00010585,"MEAN_MOTION_DDOT":0},{"OBJECT_NAME":"ALOS-2","OBJECT_ID":"2014-029A","EPOCH":"2026-04-18T13:18:38.778336","MEAN_MOTION":14.79454374,"ECCENTRICITY":0.0001772,"INCLINATION":97.9203,"RA_OF_ASC_NODE":206.5725,"ARG_OF_PERICENTER":90.6594,"MEAN_ANOMALY":269.482,"EPHEMERIS_TYPE":0,"CLASSIFICATION_TYPE":"U","NORAD_CAT_ID":39766,"ELEMENT_SET_NO":999,"REV_AT_EPOCH":64276,"BSTAR":1.616e-5,"MEAN_MOTION_DOT":6.9e-7,"MEAN_MOTION_DDOT":0},{"OBJECT_NAME":"YAOGAN-29","OBJECT_ID":"2015-069A","EPOCH":"2026-04-19T14:44:54.259296","MEAN_MOTION":14.83034562,"ECCENTRICITY":0.00012716,"INCLINATION":98.0077,"RA_OF_ASC_NODE":138.1426,"ARG_OF_PERICENTER":151.6577,"MEAN_ANOMALY":208.4706,"EPHEMERIS_TYPE":0,"CLASSIFICATION_TYPE":"U","NORAD_CAT_ID":41038,"ELEMENT_SET_NO":999,"REV_AT_EPOCH":56194,"BSTAR":-1.067667e-5,"MEAN_MOTION_DOT":-1.41e-6,"MEAN_MOTION_DDOT":0},{"OBJECT_NAME":"ASTRO-H (HITOMI)","OBJECT_ID":"2016-012A","EPOCH":"2026-04-19T06:48:35.194752","MEAN_MOTION":15.10242407,"ECCENTRICITY":0.0009486,"INCLINATION":30.9985,"RA_OF_ASC_NODE":94.5281,"ARG_OF_PERICENTER":19.4284,"MEAN_ANOMALY":340.6715,"EPHEMERIS_TYPE":0,"CLASSIFICATION_TYPE":"U","NORAD_CAT_ID":41337,"ELEMENT_SET_NO":999,"REV_AT_EPOCH":55837,"BSTAR":0.00011754,"MEAN_MOTION_DOT":2.067e-5,"MEAN_MOTION_DDOT":0},{"OBJECT_NAME":"HXMT (HUIYAN)","OBJECT_ID":"2017-034A","EPOCH":"2026-04-19T13:56:12.107616","MEAN_MOTION":15.1795294,"ECCENTRICITY":0.0030673,"INCLINATION":43.013,"RA_OF_ASC_NODE":149.2415,"ARG_OF_PERICENTER":135.1899,"MEAN_ANOMALY":225.1433,"EPHEMERIS_TYPE":0,"CLASSIFICATION_TYPE":"U","NORAD_CAT_ID":42758,"ELEMENT_SET_NO":999,"REV_AT_EPOCH":48875,"BSTAR":0.00016807,"MEAN_MOTION_DOT":3.272e-5,"MEAN_MOTION_DDOT":0}]
